NORAD_CAT_ID,OBJECT_NAME,OBJECT_TYPE,EPOCH,MEAN_MOTION,ECCENTRICITY,INCLINATION,RA_OF_ASC_NODE,ARG_OF_PERICENTER,MEAN_ANOMALY,BSTAR,MEAN_MOTION_DOT,MEAN_MOTION_DDOT,TLE_LINE0,TLE_LINE1,TLE_LINE2,SEMIMAJOR_AXIS,PERIOD,APOGEE,PERIGEE,DECAYED
50178.0,STARLINK-3284,PAYLOAD,2023-09-10 13:53:31,15.08840078,0.0001262,53.2188,19.1132,89.2059,270.9078,0.00012862,1.76e-05,0.0,0 STARLINK-3284,1 50178U 21125Y   23253.57883766  .00001760  00000-0  12862-3 0  9993,2 50178  53.2188  19.1132 0001262  89.2059 270.9078 15.08840078 99092,6917.88,95.438,540.618,538.872,0.0
50178.0,STARLINK-3284,PAYLOAD,2023-09-11 13:44:19,15.0883747,0.0001106,53.2195,14.6525,71.1571,288.9541,6.1055e-05,6.84e-06,0.0,0 STARLINK-3284,1 50178U 21125Y   23254.57244280  .00000684  00000-0  61055-4 0  9999,2 50178  53.2195  14.6525 0001106  71.1571 288.9541 15.08837470 99245,6917.888,95.438,540.518,538.988,0.0
50178.0,STARLINK-3284,PAYLOAD,2023-09-11 16:55:04,15.08846526,0.0001159,53.2188,14.0579,82.3444,277.7679,7.272e-05,8.7e-06,0.0,0 STARLINK-3284,1 50178U 21125Y   23254.70491634  .00000870  00000-0  72720-4 0  9999,2 50178  53.2188  14.0579 0001159  82.3444 277.7679 15.08846526 98734,6917.86,95.437,540.527,538.924,0.0
50178.0,STARLINK-3284,PAYLOAD,2023-09-12 13:35:06,15.08839296,0.0001131,53.2193,10.1926,85.5662,274.5459,4.545e-05,4.36e-06,0.0,0 STARLINK-3284,1 50178U 21125Y   23255.56604239  .00000436  00000-0  45450-4 0  9999,2 50178  53.2193  10.1926 0001131  85.5662 274.5459 15.08839296 99390,6917.883,95.438,540.53,538.965,0.0
50178.0,STARLINK-3284,PAYLOAD,2023-09-12 15:10:28,15.08846572,0.0001217,53.2188,9.8957,82.9188,277.1943,0.00011099,1.479e-05,0.0,0 STARLINK-3284,1 50178U 21125Y   23255.63227672  .00001479  00000-0  11099-3 0  9998,2 50178  53.2188   9.8957 0001217  82.9188 277.1943 15.08846572 99406,6917.86,95.437,540.567,538.883,0.0
50178.0,STARLINK-3284,PAYLOAD,2023-09-13 00:42:47,15.08843345,0.00012,53.2194,8.1103,95.3861,264.7268,0.00017162,2.445e-05,0.0,0 STARLINK-3284,1 50178U 21125Y   23256.02971816  .00002445  00000-0  17162-3 0  9999,2 50178  53.2194   8.1103 0001200  95.3861 264.7268 15.08843345 98930,6917.87,95.437,540.565,538.905,0.0
50178.0,STARLINK-3284,PAYLOAD,2023-09-13 13:25:52,15.08853584,0.000117,53.2174,5.734,95.5828,264.5297,0.00015199,2.133e-05,0.0,0 STARLINK-3284,1 50178U 21125Y   23256.55963093  .00002133  00000-0  15199-3 0  9997,2 50178  53.2174   5.7340 0001170  95.5828 264.5297 15.08853584 99549,6917.839,95.437,540.513,538.894,0.0
50178.0,STARLINK-3284,PAYLOAD,2023-09-13 15:01:15,15.08859069,0.0001299,53.2187,5.4355,76.5637,283.55,0.00026009,3.856e-05,0.0,0 STARLINK-3284,1 50178U 21125Y   23256.62586871  .00003856  00000-0  26009-3 0  9995,2 50178  53.2187   5.4355 0001299  76.5637 283.5500 15.08859069 99020,6917.822,95.436,540.586,538.788,0.0
50178.0,STARLINK-3284,PAYLOAD,2023-09-14 02:08:58,15.08833758,0.0001391,53.2179,3.3559,84.3529,275.7621,-6.2282e-05,-1.279e-05,0.0,0 STARLINK-3284,1 50178U 21125Y   23257.08956126 -.00001279  00000-0 -62282-4 0  9993,2 50178  53.2179   3.3559 0001391  84.3529 275.7621 15.08833758 99095,6917.899,95.438,540.727,538.802,0.0
50178.0,STARLINK-3284,PAYLOAD,2023-09-14 13:16:41,15.0881589,0.0001287,53.2181,1.2724,93.5621,266.5519,-0.00031342,-5.269e-05,0.0,0 STARLINK-3284,1 50178U 21125Y   23257.55325571 -.00005269  00000-0 -31342-3 0  9994,2 50178  53.2181   1.2724 0001287  93.5621 266.5519 15.08815890 99695,6917.954,95.439,540.709,538.929,0.0
50178.0,STARLINK-3284,PAYLOAD,2023-09-14 16:27:28,15.08823247,0.0001419,53.2192,0.6768,108.2781,251.8366,-0.00013554,-2.443e-05,0.0,0 STARLINK-3284,1 50178U 21125Y   23257.68574116 -.00002443  00000-0 -13554-3 0  9995,2 50178  53.2192   0.6768 0001419 108.2781 251.8366 15.08823247 99182,6917.932,95.439,540.778,538.815,0.0
50178.0,STARLINK-3284,PAYLOAD,2023-09-15 09:56:41,15.08841489,0.0001206,53.2191,357.4099,62.3278,297.7837,3.1908e-05,2.2e-06,0.0,0 STARLINK-3284,1 50178U 21125Y   23258.41437042  .00000220  00000-0  31908-4 0  9996,2 50178  53.2191 357.4099 0001206  62.3278 297.7837 15.08841489 99298,6917.876,95.437,540.575,538.907,0.0
50178.0,STARLINK-3284,PAYLOAD,2023-09-15 13:07:27,15.08848193,0.0001726,53.2193,356.8158,57.0978,303.018,9.507e-05,1.226e-05,0.0,0 STARLINK-3284,1 50178U 21125Y   23258.54684567  .00001226  00000-0  95070-4 0  9993,2 50178  53.2193 356.8158 0001726  57.0978 303.0180 15.08848193 99846,6917.855,95.437,540.914,538.526,0.0
50178.0,STARLINK-3284,PAYLOAD,2023-09-16 09:47:29,15.08838613,0.0001571,53.2182,352.9478,70.0672,290.0489,0.00038921,5.911e-05,0.0,0 STARLINK-3284,1 50178U 21125Y   23259.40797560  .00005911  00000-0  38921-3 0  9993,2 50178  53.2182 352.9478 0001571  70.0672 290.0489 15.08838613 99449,6917.885,95.438,540.836,538.663,0.0
50178.0,STARLINK-3284,PAYLOAD,2023-09-16 12:58:15,15.08840135,0.0001376,53.2176,352.3518,81.1965,278.9183,0.00036459,5.519e-05,0.0,0 STARLINK-3284,1 50178U 21125Y   23259.54045352  .00005519  00000-0  36459-3 0  9991,2 50178  53.2176 352.3518 0001376  81.1965 278.9183 15.08840135 99990,6917.88,95.438,540.697,538.793,0.0
50178.0,STARLINK-3284,PAYLOAD,2023-09-16 16:09:00,15.0884257,0.0001158,53.2179,351.7551,92.8942,267.2183,0.00027971,4.167e-05,0.0,0 STARLINK-3284,1 50178U 21125Y   23259.67292614  .00004167  00000-0  27971-3 0  9997,2 50178  53.2179 351.7551 0001158  92.8942 267.2183 15.08842570 99485,6917.873,95.437,540.539,538.936,0.0
50178.0,STARLINK-3284,PAYLOAD,2023-09-17 12:49:01,15.08851183,0.0001348,53.2182,347.8907,90.5466,269.5681,4.7356e-05,4.66e-06,0.0,0 STARLINK-3284,1 50178U 21125Y   23260.53404576  .00000466  00000-0  47356-4 0  9994,2 50178  53.2182 347.8907 0001348  90.5466 269.5681 15.08851183100141,6917.846,95.437,540.644,538.779,0.0
50178.0,STARLINK-3284,PAYLOAD,2023-09-17 22:21:20,15.08848439,0.0001284,53.2185,346.1067,80.9887,279.125,-1.4908e-05,-5.25e-06,0.0,0 STARLINK-3284,1 50178U 21125Y   23260.93148718 -.00000525  00000-0 -14908-4 0  9996,2 50178  53.2185 346.1067 0001284  80.9887 279.1250 15.08848439 99676,6917.855,95.437,540.608,538.831,0.0
50178.0,STARLINK-3284,PAYLOAD,2023-09-18 11:04:25,15.08843933,0.0001446,53.2194,343.729,86.0237,274.092,8.9716e-05,1.14e-05,0.0,0 STARLINK-3284,1 50178U 21125Y   23261.46140750  .00001140  00000-0  89716-4 0  9994,2 50178  53.2194 343.7290 0001446  86.0237 274.0920 15.08843933100285,6917.868,95.437,540.734,538.733,0.0
50178.0,STARLINK-3284,PAYLOAD,2023-09-19 10:55:11,15.08853975,0.0001564,53.2176,339.267,108.1255,251.9908,0.00015364,2.159e-05,0.0,0 STARLINK-3284,1 50178U 21125Y   23262.45499651  .00002159  00000-0  15364-3 0  9999,2 50178  53.2176 339.2670 0001564 108.1255 251.9908 15.08853975 99907,6917.838,95.437,540.785,538.621,0.0
50178.0,STARLINK-3284,PAYLOAD,2023-09-20 04:24:27,15.08835539,0.0001668,53.2185,335.9987,79.6527,280.4653,-1.3765e-05,-5.07e-06,0.0,0 STARLINK-3284,1 50178U 21125Y   23263.18364905 -.00000507  00000-0 -13765-4 0  9994,2 50178  53.2185 335.9987 0001668  79.6527 280.4653 15.08835539100015,6917.894,95.438,540.913,538.605,0.0
50178.0,STARLINK-3284,PAYLOAD,2023-09-20 12:21:23,15.0882267,0.0001388,53.2171,334.5084,72.756,287.3584,-0.00022828,-3.917e-05,0.0,0 STARLINK-3284,1 50178U 21125Y   23263.51485822 -.00003917  00000-0 -22828-3 0  9990,2 50178  53.2171 334.5084 0001388  72.7560 287.3584 15.08822670100069,6917.933,95.439,540.759,538.838,0.0
50178.0,STARLINK-3284,PAYLOAD,2023-09-21 10:36:47,15.08844924,0.0001443,53.217,330.3467,70.8009,289.3139,0.00011033,1.469e-05,0.0,0 STARLINK-3284,1 50178U 21125Y   23264.44221333  .00001469  00000-0  11033-3 0  9992,2 50178  53.2170 330.3467 0001443  70.8009 289.3139 15.08844924100206,6917.865,95.437,540.729,538.732,0.0
50178.0,STARLINK-3284,PAYLOAD,2023-09-21 12:12:10,15.08846719,0.0001475,53.2172,330.0496,69.5574,290.5577,0.00016146,2.283e-05,0.0,0 STARLINK-3284,1 50178U 21125Y   23264.50845310  .00002283  00000-0  16146-3 0  9991,2 50178  53.2172 330.0496 0001475  69.5574 290.5577 15.08846719100747,6917.86,95.437,540.745,538.704,0.0
50178.0,STARLINK-3284,PAYLOAD,2023-09-21 21:44:29,15.08840318,0.0001445,53.2168,328.2657,75.6766,284.4387,0.00052913,8.143e-05,0.0,0 STARLINK-3284,1 50178U 21125Y   23264.90590059  .00008143  00000-0  52913-3 0  9995,2 50178  53.2168 328.2657 0001445  75.6766 284.4387 15.08840318100805,6917.879,95.438,540.744,538.745,0.0
50178.0,STARLINK-3284,PAYLOAD,2023-09-22 04:06:02,15.08843322,0.0001525,53.2166,327.0765,66.9545,293.1607,0.00051326,7.891e-05,0.0,0 STARLINK-3284,1 50178U 21125Y   23265.17086065  .00007891  00000-0  51326-3 0  9998,2 50178  53.2166 327.0765 0001525  66.9545 293.1607 15.08843322100313,6917.87,95.437,540.79,538.68,0.0
50178.0,STARLINK-3284,PAYLOAD,2023-09-22 10:27:34,15.08853214,0.000165,53.2162,325.8874,66.8611,293.2555,0.00049661,7.627e-05,0.0,0 STARLINK-3284,1 50178U 21125Y   23265.43581706  .00007627  00000-0  49661-3 0  9995,2 50178  53.2162 325.8874 0001650  66.8611 293.2555 15.08853214100884,6917.84,95.437,540.846,538.564,0.0
50178.0,STARLINK-3284,PAYLOAD,2023-09-22 21:35:16,15.0885329,0.0001681,53.216,323.8057,65.9767,294.1401,0.00029896,4.475e-05,0.0,0 STARLINK-3284,1 50178U 21125Y   23265.89949406  .00004475  00000-0  29896-3 0  9996,2 50178  53.2160 323.8057 0001681  65.9767 294.1401 15.08853290100951,6917.84,95.437,540.868,538.542,0.0
50178.0,STARLINK-3284,PAYLOAD,2023-09-23 10:18:21,15.08846555,0.0001782,53.2173,321.4265,68.691,291.4272,5.0181e-05,5.11e-06,0.0,0 STARLINK-3284,1 50178U 21125Y   23266.42941551  .00000511  00000-0  50181-4 0  9998,2 50178  53.2173 321.4265 0001782  68.6910 291.4272 15.08846555100505,6917.86,95.437,540.958,538.493,0.0
50178.0,STARLINK-3284,PAYLOAD,2023-09-24 03:47:36,15.08839029,0.0001579,53.2165,318.1549,81.8543,278.2628,0.00015494,2.179e-05,0.0,0 STARLINK-3284,1 50178U 21125Y   23267.15805651  .00002179  00000-0  15494-3 0  9998,2 50178  53.2165 318.1549 0001579  81.8543 278.2628 15.08839029100615,6917.883,95.438,540.841,538.656,0.0
